CCSDS_OMM_VERS = 2.0
CREATION_DATE  = 
ORIGINATOR     = 

OBJECT_NAME    = COSMOS 1933
OBJECT_ID      = 1988-020A
CENTER_NAME    = EARTH
REF_FRAME      = TEME
TIME_SYSTEM    = UTC
MEAN_ELEMENT_THEORY = SGP/SGP4

EPOCH          = 2025-12-03T18:46:41.673792
MEAN_MOTION    = 15.16988994
ECCENTRICITY   = .00050899
INCLINATION    = 82.5126
RA_OF_ASC_NODE = 345.7294
ARG_OF_PERICENTER = 151.1847
MEAN_ANOMALY   = 208.9668

EPHEMERIS_TYPE = 0
CLASSIFICATION_TYPE = U
NORAD_CAT_ID   = 18958
ELEMENT_SET_NO = 999
REV_AT_EPOCH   = 3568
BSTAR          = .32104282E-3
MEAN_MOTION_DOT = .6371E-4
MEAN_MOTION_DDOT = 0

CCSDS_OMM_VERS = 2.0
CREATION_DATE  = 
ORIGINATOR     = 

OBJECT_NAME    = SL-3 R/B
OBJECT_ID      = 1988-032B
CENTER_NAME    = EARTH
REF_FRAME      = TEME
TIME_SYSTEM    = UTC
MEAN_ELEMENT_THEORY = SGP/SGP4

EPOCH          = 2025-12-03T21:36:52.882848
MEAN_MOTION    = 15.18598657
ECCENTRICITY   = .00257693
INCLINATION    = 97.5064
RA_OF_ASC_NODE = 316.6836
ARG_OF_PERICENTER = 204.2966
MEAN_ANOMALY   = 155.7055

EPHEMERIS_TYPE = 0
CLASSIFICATION_TYPE = U
NORAD_CAT_ID   = 19046
ELEMENT_SET_NO = 999
REV_AT_EPOCH   = 3756
BSTAR          = .47480252E-3
MEAN_MOTION_DOT = .9842E-4
MEAN_MOTION_DDOT = 0

CCSDS_OMM_VERS = 2.0
CREATION_DATE  = 
ORIGINATOR     = 

OBJECT_NAME    = COSMOS 1953
OBJECT_ID      = 1988-050A
CENTER_NAME    = EARTH
REF_FRAME      = TEME
TIME_SYSTEM    = UTC
MEAN_ELEMENT_THEORY = SGP/SGP4

EPOCH          = 2025-12-03T20:34:06.595392
MEAN_MOTION    = 15.26772502
ECCENTRICITY   = .00138006
INCLINATION    = 82.5098
RA_OF_ASC_NODE = 254.4919
ARG_OF_PERICENTER = 98.2582
MEAN_ANOMALY   = 262.0222

EPHEMERIS_TYPE = 0
CLASSIFICATION_TYPE = U
NORAD_CAT_ID   = 19210
ELEMENT_SET_NO = 999
REV_AT_EPOCH   = 2315
BSTAR          = .43678345E-3
MEAN_MOTION_DOT = .1156E-3
MEAN_MOTION_DDOT = 0

CCSDS_OMM_VERS = 2.0
CREATION_DATE  = 
ORIGINATOR     = 

OBJECT_NAME    = SL-8 R/B
OBJECT_ID      = 1988-053B
CENTER_NAME    = EARTH
REF_FRAME      = TEME
TIME_SYSTEM    = UTC
MEAN_ELEMENT_THEORY = SGP/SGP4

EPOCH          = 2025-12-03T22:01:32.600352
MEAN_MOTION    = 14.38850611
ECCENTRICITY   = .00192027
INCLINATION    = 74.0475
RA_OF_ASC_NODE = 288.9787
ARG_OF_PERICENTER = 136.3127
MEAN_ANOMALY   = 279.5626

EPHEMERIS_TYPE = 0
CLASSIFICATION_TYPE = U
NORAD_CAT_ID   = 19257
ELEMENT_SET_NO = 999
REV_AT_EPOCH   = 96282
BSTAR          = .16541909E-3
MEAN_MOTION_DOT = .484E-5
MEAN_MOTION_DDOT = 0

CCSDS_OMM_VERS = 2.0
CREATION_DATE  = 
ORIGINATOR     = 

OBJECT_NAME    = COSMOS 1975
OBJECT_ID      = 1988-093A
CENTER_NAME    = EARTH
REF_FRAME      = TEME
TIME_SYSTEM    = UTC
MEAN_ELEMENT_THEORY = SGP/SGP4

EPOCH          = 2025-12-03T17:37:01.452576
MEAN_MOTION    = 15.26261430
ECCENTRICITY   = .00122491
INCLINATION    = 82.5216
RA_OF_ASC_NODE = 213.8421
ARG_OF_PERICENTER = 140.9471
MEAN_ANOMALY   = 219.2655

EPHEMERIS_TYPE = 0
CLASSIFICATION_TYPE = U
NORAD_CAT_ID   = 19573
ELEMENT_SET_NO = 999
REV_AT_EPOCH   = 476
BSTAR          = .48386717E-3
MEAN_MOTION_DOT = .12601E-3
MEAN_MOTION_DDOT = 0

CCSDS_OMM_VERS = 2.0
CREATION_DATE  = 
ORIGINATOR     = 

OBJECT_NAME    = SL-14 R/B
OBJECT_ID      = 1988-093B
CENTER_NAME    = EARTH
REF_FRAME      = TEME
TIME_SYSTEM    = UTC
MEAN_ELEMENT_THEORY = SGP/SGP4

EPOCH          = 2025-12-03T23:05:03.354432
MEAN_MOTION    = 14.85534450
ECCENTRICITY   = .00207168
INCLINATION    = 82.5296
RA_OF_ASC_NODE = 131.9045
ARG_OF_PERICENTER = 358.9913
MEAN_ANOMALY   = 118.3390

EPHEMERIS_TYPE = 0
CLASSIFICATION_TYPE = U
NORAD_CAT_ID   = 19574
ELEMENT_SET_NO = 999
REV_AT_EPOCH   = 98682
BSTAR          = .10791338E-3
MEAN_MOTION_DOT = .959E-5
MEAN_MOTION_DDOT = 0

CCSDS_OMM_VERS = 2.0
CREATION_DATE  = 
ORIGINATOR     = 

OBJECT_NAME    = SL-16 R/B
OBJECT_ID      = 1988-102B
CENTER_NAME    = EARTH
REF_FRAME      = TEME
TIME_SYSTEM    = UTC
MEAN_ELEMENT_THEORY = SGP/SGP4

EPOCH          = 2025-12-03T18:29:08.939904
MEAN_MOTION    = 14.16137351
ECCENTRICITY   = .00133913
INCLINATION    = 71.0003
RA_OF_ASC_NODE = 353.3165
ARG_OF_PERICENTER = 166.8532
MEAN_ANOMALY   = 193.2943

EPHEMERIS_TYPE = 0
CLASSIFICATION_TYPE = U
NORAD_CAT_ID   = 19650
ELEMENT_SET_NO = 999
REV_AT_EPOCH   = 91331
BSTAR          = -.3078713E-4
MEAN_MOTION_DOT = -.109E-5
MEAN_MOTION_DDOT = 0

CCSDS_OMM_VERS = 2.0
CREATION_DATE  = 
ORIGINATOR     = 

OBJECT_NAME    = INTERCOSMOS 24
OBJECT_ID      = 1989-080A
CENTER_NAME    = EARTH
REF_FRAME      = TEME
TIME_SYSTEM    = UTC
MEAN_ELEMENT_THEORY = SGP/SGP4

EPOCH          = 2025-12-03T22:12:29.004480
MEAN_MOTION    = 12.59414791
ECCENTRICITY   = .11887336
INCLINATION    = 82.6045
RA_OF_ASC_NODE = 166.6839
ARG_OF_PERICENTER = 154.9610
MEAN_ANOMALY   = 211.4336

EPHEMERIS_TYPE = 0
CLASSIFICATION_TYPE = U
NORAD_CAT_ID   = 20261
ELEMENT_SET_NO = 999
REV_AT_EPOCH   = 65474
BSTAR          = .40492246E-3
MEAN_MOTION_DOT = .1393E-4
MEAN_MOTION_DDOT = 0

CCSDS_OMM_VERS = 2.0
CREATION_DATE  = 
ORIGINATOR     = 

OBJECT_NAME    = DELTA 1 R/B
OBJECT_ID      = 1989-089B
CENTER_NAME    = EARTH
REF_FRAME      = TEME
TIME_SYSTEM    = UTC
MEAN_ELEMENT_THEORY = SGP/SGP4

EPOCH          = 2025-12-03T14:28:51.815136
MEAN_MOTION    = 14.50560122
ECCENTRICITY   = .00705614
INCLINATION    = 97.0758
RA_OF_ASC_NODE = 195.2886
ARG_OF_PERICENTER = 66.6513
MEAN_ANOMALY   = 294.2088

EPHEMERIS_TYPE = 0
CLASSIFICATION_TYPE = U
NORAD_CAT_ID   = 20323
ELEMENT_SET_NO = 999
REV_AT_EPOCH   = 88180
BSTAR          = .14519304E-3
MEAN_MOTION_DOT = .552E-5
MEAN_MOTION_DDOT = 0

CCSDS_OMM_VERS = 2.0
CREATION_DATE  = 
ORIGINATOR     = 

OBJECT_NAME    = ARIANE 40 R/B
OBJECT_ID      = 1990-005H
CENTER_NAME    = EARTH
REF_FRAME      = TEME
TIME_SYSTEM    = UTC
MEAN_ELEMENT_THEORY = SGP/SGP4

EPOCH          = 2025-12-03T18:35:08.188512
MEAN_MOTION    = 14.39787331
ECCENTRICITY   = .00110395
INCLINATION    = 98.3257
RA_OF_ASC_NODE = 36.2053
ARG_OF_PERICENTER = 130.2633
MEAN_ANOMALY   = 229.9522

EPHEMERIS_TYPE = 0
CLASSIFICATION_TYPE = U
NORAD_CAT_ID   = 20443
ELEMENT_SET_NO = 999
REV_AT_EPOCH   = 87900
BSTAR          = .17816808E-3
MEAN_MOTION_DOT = .517E-5
MEAN_MOTION_DDOT = 0

