COSMOS 1933             
1 18958U 88020A   25337.78242678  .00006371  00000+0  32104-3 0  9992
2 18958  82.5126 345.7294 0005089 151.1847 208.9668 15.16988994 35681
SL-3 R/B                
1 19046U 88032B   25337.90061207  .00009842  00000+0  47480-3 0  9994
2 19046  97.5064 316.6836 0025769 204.2966 155.7055 15.18598657 37568
COSMOS 1953             
1 19210U 88050A   25337.85702078  .00011560  00000+0  43678-3 0  9994
2 19210  82.5098 254.4919 0013800  98.2582 262.0222 15.26772502 23151
SL-8 R/B                
1 19257U 88053B   25337.91773843  .00000484  00000+0  16542-3 0  9996
2 19257  74.0475 288.9787 0019202 136.3127 279.5626 14.38850611962820
COSMOS 1975             
1 19573U 88093A   25337.73404459  .00012601  00000+0  48387-3 0  9991
2 19573  82.5216 213.8421 0012249 140.9471 219.2655 15.26261430  4763
SL-14 R/B               
1 19574U 88093B   25337.96184438  .00000959  00000+0  10791-3 0  9990
2 19574  82.5296 131.9045 0020716 358.9913 118.3390 14.85534450986824
SL-16 R/B               
1 19650U 88102B   25337.77024236 -.00000109  00000+0 -30787-4 0  9991
2 19650  71.0003 353.3165 0013391 166.8532 193.2943 14.16137351913318
INTERCOSMOS 24          
1 20261U 89080A   25337.92533570  .00001393  00000+0  40492-3 0  9997
2 20261  82.6045 166.6839 1188733 154.9610 211.4336 12.59414791654743
DELTA 1 R/B             
1 20323U 89089B   25337.60337749  .00000552  00000+0  14519-3 0  9997
2 20323  97.0758 195.2886 0070561  66.6513 294.2088 14.50560122881807
ARIANE 40 R/B           
1 20443U 90005H   25337.77440033  .00000517  00000+0  17817-3 0  9994
2 20443  98.3257  36.2053 0011039 130.2633 229.9522 14.39787331879001
